CCSDS_OMM_VERS = 2.0
CREATION_DATE  = 
ORIGINATOR     = 

OBJECT_NAME    = STARLINK-35997
OBJECT_ID      = 2025-280Y
CENTER_NAME    = EARTH
REF_FRAME      = TEME
TIME_SYSTEM    = UTC
MEAN_ELEMENT_THEORY = SGP/SGP4

EPOCH          = 2025-12-20T12:00:02.000160
MEAN_MOTION    = 15.52492974
ECCENTRICITY   = .0003027
INCLINATION    = 70.0001
RA_OF_ASC_NODE = 177.1075
ARG_OF_PERICENTER = 264.2560
MEAN_ANOMALY   = 307.1335

EPHEMERIS_TYPE = 0
CLASSIFICATION_TYPE = U
NORAD_CAT_ID   = 66843
ELEMENT_SET_NO = 999
REV_AT_EPOCH   = 414
BSTAR          = .10991E-2
MEAN_MOTION_DOT = .67966E-3
MEAN_MOTION_DDOT = 0

CCSDS_OMM_VERS = 2.0
CREATION_DATE  = 
ORIGINATOR     = 

OBJECT_NAME    = STARLINK-36073
OBJECT_ID      = 2025-280Z
CENTER_NAME    = EARTH
REF_FRAME      = TEME
TIME_SYSTEM    = UTC
MEAN_ELEMENT_THEORY = SGP/SGP4

EPOCH          = 2025-12-20T12:00:02.000160
MEAN_MOTION    = 15.52502268
ECCENTRICITY   = .0003134
INCLINATION    = 70.0000
RA_OF_ASC_NODE = 177.1106
ARG_OF_PERICENTER = 262.9471
MEAN_ANOMALY   = 306.4451

EPHEMERIS_TYPE = 0
CLASSIFICATION_TYPE = U
NORAD_CAT_ID   = 66844
ELEMENT_SET_NO = 999
REV_AT_EPOCH   = 414
BSTAR          = .11328E-2
MEAN_MOTION_DOT = .701E-3
MEAN_MOTION_DDOT = 0

CCSDS_OMM_VERS = 2.0
CREATION_DATE  = 
ORIGINATOR     = 

OBJECT_NAME    = STARLINK-36068
OBJECT_ID      = 2025-280AA
CENTER_NAME    = EARTH
REF_FRAME      = TEME
TIME_SYSTEM    = UTC
MEAN_ELEMENT_THEORY = SGP/SGP4

EPOCH          = 2025-12-20T12:00:02.000160
MEAN_MOTION    = 15.52486460
ECCENTRICITY   = .0003174
INCLINATION    = 70.0000
RA_OF_ASC_NODE = 177.1006
ARG_OF_PERICENTER = 264.7191
MEAN_ANOMALY   = 312.4301

EPHEMERIS_TYPE = 0
CLASSIFICATION_TYPE = U
NORAD_CAT_ID   = 66845
ELEMENT_SET_NO = 999
REV_AT_EPOCH   = 414
BSTAR          = .11421E-2
MEAN_MOTION_DOT = .70641E-3
MEAN_MOTION_DDOT = 0

CCSDS_OMM_VERS = 2.0
CREATION_DATE  = 
ORIGINATOR     = 

OBJECT_NAME    = STARLINK-36055
OBJECT_ID      = 2025-280AB
CENTER_NAME    = EARTH
REF_FRAME      = TEME
TIME_SYSTEM    = UTC
MEAN_ELEMENT_THEORY = SGP/SGP4

EPOCH          = 2025-12-20T12:00:02.000160
MEAN_MOTION    = 15.52482788
ECCENTRICITY   = .0003099
INCLINATION    = 69.9999
RA_OF_ASC_NODE = 177.1052
ARG_OF_PERICENTER = 264.1704
MEAN_ANOMALY   = 309.1526

EPHEMERIS_TYPE = 0
CLASSIFICATION_TYPE = U
NORAD_CAT_ID   = 66846
ELEMENT_SET_NO = 999
REV_AT_EPOCH   = 414
BSTAR          = .11677E-2
MEAN_MOTION_DOT = .72228E-3
MEAN_MOTION_DDOT = 0

CCSDS_OMM_VERS = 2.0
CREATION_DATE  = 
ORIGINATOR     = 

OBJECT_NAME    = STARLINK-36061
OBJECT_ID      = 2025-280AC
CENTER_NAME    = EARTH
REF_FRAME      = TEME
TIME_SYSTEM    = UTC
MEAN_ELEMENT_THEORY = SGP/SGP4

EPOCH          = 2025-12-20T12:00:02.000160
MEAN_MOTION    = 15.52478736
ECCENTRICITY   = .0003092
INCLINATION    = 70.0000
RA_OF_ASC_NODE = 177.1025
ARG_OF_PERICENTER = 264.9038
MEAN_ANOMALY   = 310.3399

EPHEMERIS_TYPE = 0
CLASSIFICATION_TYPE = U
NORAD_CAT_ID   = 66847
ELEMENT_SET_NO = 999
REV_AT_EPOCH   = 409
BSTAR          = .12341E-2
MEAN_MOTION_DOT = .76377E-3
MEAN_MOTION_DDOT = 0

CCSDS_OMM_VERS = 2.0
CREATION_DATE  = 
ORIGINATOR     = 

OBJECT_NAME    = STARLINK-36091
OBJECT_ID      = 2025-281A
CENTER_NAME    = EARTH
REF_FRAME      = TEME
TIME_SYSTEM    = UTC
MEAN_ELEMENT_THEORY = SGP/SGP4

EPOCH          = 2025-12-20T12:00:02.000160
MEAN_MOTION    = 15.74512078
ECCENTRICITY   = .0001051
INCLINATION    = 43.0006
RA_OF_ASC_NODE = 74.8778
ARG_OF_PERICENTER = 279.6117
MEAN_ANOMALY   = 185.7129

EPHEMERIS_TYPE = 0
CLASSIFICATION_TYPE = U
NORAD_CAT_ID   = 66848
ELEMENT_SET_NO = 999
REV_AT_EPOCH   = 264
BSTAR          = -.1466E-1
MEAN_MOTION_DOT = -.1911228E-1
MEAN_MOTION_DDOT = 0

CCSDS_OMM_VERS = 2.0
CREATION_DATE  = 
ORIGINATOR     = 

OBJECT_NAME    = STARLINK-36102
OBJECT_ID      = 2025-281B
CENTER_NAME    = EARTH
REF_FRAME      = TEME
TIME_SYSTEM    = UTC
MEAN_ELEMENT_THEORY = SGP/SGP4

EPOCH          = 2025-12-20T12:00:02.000160
MEAN_MOTION    = 15.74511529
ECCENTRICITY   = .0001125
INCLINATION    = 43.0005
RA_OF_ASC_NODE = 74.8735
ARG_OF_PERICENTER = 278.4002
MEAN_ANOMALY   = 188.8388

EPHEMERIS_TYPE = 0
CLASSIFICATION_TYPE = U
NORAD_CAT_ID   = 66849
ELEMENT_SET_NO = 999
REV_AT_EPOCH   = 264
BSTAR          = -.1463E-1
MEAN_MOTION_DOT = -.1907872E-1
MEAN_MOTION_DDOT = 0

CCSDS_OMM_VERS = 2.0
CREATION_DATE  = 
ORIGINATOR     = 

OBJECT_NAME    = STARLINK-36105
OBJECT_ID      = 2025-281C
CENTER_NAME    = EARTH
REF_FRAME      = TEME
TIME_SYSTEM    = UTC
MEAN_ELEMENT_THEORY = SGP/SGP4

EPOCH          = 2025-12-20T12:00:02.000160
MEAN_MOTION    = 15.74516929
ECCENTRICITY   = .0001138
INCLINATION    = 43.0005
RA_OF_ASC_NODE = 74.8679
ARG_OF_PERICENTER = 283.5155
MEAN_ANOMALY   = 185.6422

EPHEMERIS_TYPE = 0
CLASSIFICATION_TYPE = U
NORAD_CAT_ID   = 66850
ELEMENT_SET_NO = 999
REV_AT_EPOCH   = 264
BSTAR          = -.1472E-1
MEAN_MOTION_DOT = -.1918387E-1
MEAN_MOTION_DDOT = 0

CCSDS_OMM_VERS = 2.0
CREATION_DATE  = 
ORIGINATOR     = 

OBJECT_NAME    = STARLINK-36094
OBJECT_ID      = 2025-281D
CENTER_NAME    = EARTH
REF_FRAME      = TEME
TIME_SYSTEM    = UTC
MEAN_ELEMENT_THEORY = SGP/SGP4

EPOCH          = 2025-12-20T12:00:02.000160
MEAN_MOTION    = 15.74531229
ECCENTRICITY   = .0001164
INCLINATION    = 43.0003
RA_OF_ASC_NODE = 74.8636
ARG_OF_PERICENTER = 282.4768
MEAN_ANOMALY   = 188.5848

EPHEMERIS_TYPE = 0
CLASSIFICATION_TYPE = U
NORAD_CAT_ID   = 66851
ELEMENT_SET_NO = 999
REV_AT_EPOCH   = 264
BSTAR          = -.14817E-1
MEAN_MOTION_DOT = -.1930432E-1
MEAN_MOTION_DDOT = 0

CCSDS_OMM_VERS = 2.0
CREATION_DATE  = 
ORIGINATOR     = 

OBJECT_NAME    = STARLINK-35992
OBJECT_ID      = 2025-281E
CENTER_NAME    = EARTH
REF_FRAME      = TEME
TIME_SYSTEM    = UTC
MEAN_ELEMENT_THEORY = SGP/SGP4

EPOCH          = 2025-12-20T12:00:02.000160
MEAN_MOTION    = 15.74508545
ECCENTRICITY   = .0001287
INCLINATION    = 43.0007
RA_OF_ASC_NODE = 74.8590
ARG_OF_PERICENTER = 286.9918
MEAN_ANOMALY   = 186.0043

EPHEMERIS_TYPE = 0
CLASSIFICATION_TYPE = U
NORAD_CAT_ID   = 66852
ELEMENT_SET_NO = 999
REV_AT_EPOCH   = 264
BSTAR          = -.14649E-1
MEAN_MOTION_DOT = -.190992E-1
MEAN_MOTION_DDOT = 0

CCSDS_OMM_VERS = 2.0
CREATION_DATE  = 
ORIGINATOR     = 

OBJECT_NAME    = STARLINK-35986
OBJECT_ID      = 2025-281F
CENTER_NAME    = EARTH
REF_FRAME      = TEME
TIME_SYSTEM    = UTC
MEAN_ELEMENT_THEORY = SGP/SGP4

EPOCH          = 2025-12-20T12:00:02.000160
MEAN_MOTION    = 15.74518627
ECCENTRICITY   = .0001329
INCLINATION    = 43.0004
RA_OF_ASC_NODE = 74.8538
ARG_OF_PERICENTER = 285.3115
MEAN_ANOMALY   = 189.5967

EPHEMERIS_TYPE = 0
CLASSIFICATION_TYPE = U
NORAD_CAT_ID   = 66853
ELEMENT_SET_NO = 999
REV_AT_EPOCH   = 264
BSTAR          = -.14745E-1
MEAN_MOTION_DOT = -.1921585E-1
MEAN_MOTION_DDOT = 0

CCSDS_OMM_VERS = 2.0
CREATION_DATE  = 
ORIGINATOR     = 

OBJECT_NAME    = STARLINK-36087
OBJECT_ID      = 2025-281G
CENTER_NAME    = EARTH
REF_FRAME      = TEME
TIME_SYSTEM    = UTC
MEAN_ELEMENT_THEORY = SGP/SGP4

EPOCH          = 2025-12-20T12:00:02.000160
MEAN_MOTION    = 15.74514192
ECCENTRICITY   = .0001363
INCLINATION    = 43.0005
RA_OF_ASC_NODE = 74.8490
ARG_OF_PERICENTER = 281.0518
MEAN_ANOMALY   = 195.7743

EPHEMERIS_TYPE = 0
CLASSIFICATION_TYPE = U
NORAD_CAT_ID   = 66854
ELEMENT_SET_NO = 999
REV_AT_EPOCH   = 264
BSTAR          = -.14687E-1
MEAN_MOTION_DOT = -.1914701E-1
MEAN_MOTION_DDOT = 0

