STARLINK-35997          
1 66843U 25280Y   25354.50002315  .00067966  00000+0  10991-2 0  9994
2 66843  70.0001 177.1075 0003027 264.2560 307.1335 15.52492974  4141
STARLINK-36073          
1 66844U 25280Z   25354.50002315  .00070100  00000+0  11328-2 0  9994
2 66844  70.0000 177.1106 0003134 262.9471 306.4451 15.52502268  4140
STARLINK-36068          
1 66845U 25280AA  25354.50002315  .00070641  00000+0  11421-2 0  9999
2 66845  70.0000 177.1006 0003174 264.7191 312.4301 15.52486460  4149
STARLINK-36055          
1 66846U 25280AB  25354.50002315  .00072228  00000+0  11677-2 0  9996
2 66846  69.9999 177.1052 0003099 264.1704 309.1526 15.52482788  4146
STARLINK-36061          
1 66847U 25280AC  25354.50002315  .00076377  00000+0  12341-2 0  9995
2 66847  70.0000 177.1025 0003092 264.9038 310.3399 15.52478736  4098
STARLINK-36091          
1 66848U 25281A   25354.50002315 -.01911228  00000+0 -14660-1 0  9998
2 66848  43.0006  74.8778 0001051 279.6117 185.7129 15.74512078  2643
STARLINK-36102          
1 66849U 25281B   25354.50002315 -.01907872  00000+0 -14630-1 0  9996
2 66849  43.0005  74.8735 0001125 278.4002 188.8388 15.74511529  2649
STARLINK-36105          
1 66850U 25281C   25354.50002315 -.01918387  00000+0 -14720-1 0  9991
2 66850  43.0005  74.8679 0001138 283.5155 185.6422 15.74516929  2641
STARLINK-36094          
1 66851U 25281D   25354.50002315 -.01930432  00000+0 -14817-1 0  9994
2 66851  43.0003  74.8636 0001164 282.4768 188.5848 15.74531229  2644
STARLINK-35992          
1 66852U 25281E   25354.50002315 -.01909920  00000+0 -14649-1 0  9996
2 66852  43.0007  74.8590 0001287 286.9918 186.0043 15.74508545  2645
STARLINK-35986          
1 66853U 25281F   25354.50002315 -.01921585  00000+0 -14745-1 0  9995
2 66853  43.0004  74.8538 0001329 285.3115 189.5967 15.74518627  2649
STARLINK-36087          
1 66854U 25281G   25354.50002315 -.01914701  00000+0 -14687-1 0  9993
2 66854  43.0005  74.8490 0001363 281.0518 195.7743 15.74514192  2640
